IDEFIX & ARIANE 42P R/B 
1 27422U 02021B   25361.05736655  .00000380  00000+0  16109-3 0  9996
2 27422  98.5804 295.5636 0012699  44.9551 315.2658 14.30960824233638
AQUA                    
1 27424U 02022A   25360.99159257  .00001315  00000+0  27355-3 0  9992
2 27424  98.4058 322.1038 0001849  99.7002 302.1298 14.61764548258111
CZ-4B R/B               
1 27432U 02024C   25361.13863666  .00000050  00000+0  49045-4 0  9992
2 27432  98.8979  49.8588 0049440 228.2653 154.8220 14.14530842218983
MIDORI II (ADEOS-II)    
1 27597U 02056A   25361.13714626  .00000384  00000+0  16885-3 0  9995
2 27597  98.7656 314.1704 0000909 145.2788 214.8452 14.29215794199937
H-2A R/B                
1 27601U 02056E   25360.91940019  .00000495  00000+0  18809-3 0  9994
2 27601  98.3086 319.1130 0070797  19.3907  49.0746 14.33688828203689
CZ-4B R/B               
1 28059U 03049C   25360.96912154  .00000531  00000+0  13324-3 0  9997
2 28059  98.6799 348.0712 0049387  93.5315 267.1531 14.54923302176020
CZ-2C R/B               
1 28222U 04012C   25361.08009627  .00047921  00000+0  66836-3 0  9996
2 28222  97.7395  54.8950 0016670 214.7570 145.2597 15.56602786192950
SL-16 R/B               
1 28353U 04021B   25361.18850352  .00000245  00000+0  15228-3 0  9998
2 28353  71.0004  24.6435 0004499 175.6367 184.4795 14.14580852112583
CZ-4B R/B               
1 28415U 04035C   25361.10446418  .00010332  00000+0  37972-3 0  9996
2 28415  97.3598  31.2575 0031867 224.1058 135.7640 15.27607937168821
CZ-2C R/B               
1 28480U 04046B   25361.05292043  .00000352  00000+0  14583-3 0  9991
2 28480  98.1997 275.5419 0139786  10.1924 350.2041 14.26949649 98142
ARIANE 5 R/B            
1 28499U 04049H   25361.00445688  .00001551  00000+0  17785-3 0  9993
2 28499  98.2530 161.7980 0083565 226.1395 133.2894 14.85049960135003
CZ-2D R/B               
1 28738U 05024B   25361.02080426  .00036893  00000+0  56968-3 0  9993
2 28738  97.3631   8.8497 0003317 303.9804  56.1134 15.54032763128474
