CCSDS_OMM_VERS = 2.0
CREATION_DATE  = 
ORIGINATOR     = 

OBJECT_NAME    = IDEFIX & ARIANE 42P R/B
OBJECT_ID      = 2002-021B
CENTER_NAME    = EARTH
REF_FRAME      = TEME
TIME_SYSTEM    = UTC
MEAN_ELEMENT_THEORY = SGP/SGP4

EPOCH          = 2025-12-27T01:22:36.469920
MEAN_MOTION    = 14.30960824
ECCENTRICITY   = .0012699
INCLINATION    = 98.5804
RA_OF_ASC_NODE = 295.5636
ARG_OF_PERICENTER = 44.9551
MEAN_ANOMALY   = 315.2658

EPHEMERIS_TYPE = 0
CLASSIFICATION_TYPE = U
NORAD_CAT_ID   = 27422
ELEMENT_SET_NO = 999
REV_AT_EPOCH   = 23363
BSTAR          = .16109E-3
MEAN_MOTION_DOT = .38E-5
MEAN_MOTION_DDOT = 0

CCSDS_OMM_VERS = 2.0
CREATION_DATE  = 
ORIGINATOR     = 

OBJECT_NAME    = AQUA
OBJECT_ID      = 2002-022A
CENTER_NAME    = EARTH
REF_FRAME      = TEME
TIME_SYSTEM    = UTC
MEAN_ELEMENT_THEORY = SGP/SGP4

EPOCH          = 2025-12-26T23:47:53.598048
MEAN_MOTION    = 14.61764548
ECCENTRICITY   = .0001849
INCLINATION    = 98.4058
RA_OF_ASC_NODE = 322.1038
ARG_OF_PERICENTER = 99.7002
MEAN_ANOMALY   = 302.1298

EPHEMERIS_TYPE = 0
CLASSIFICATION_TYPE = U
NORAD_CAT_ID   = 27424
ELEMENT_SET_NO = 999
REV_AT_EPOCH   = 25811
BSTAR          = .27355E-3
MEAN_MOTION_DOT = .1315E-4
MEAN_MOTION_DDOT = 0

CCSDS_OMM_VERS = 2.0
CREATION_DATE  = 
ORIGINATOR     = 

OBJECT_NAME    = CZ-4B R/B
OBJECT_ID      = 2002-024C
CENTER_NAME    = EARTH
REF_FRAME      = TEME
TIME_SYSTEM    = UTC
MEAN_ELEMENT_THEORY = SGP/SGP4

EPOCH          = 2025-12-27T03:19:38.207424
MEAN_MOTION    = 14.14530842
ECCENTRICITY   = .004944
INCLINATION    = 98.8979
RA_OF_ASC_NODE = 49.8588
ARG_OF_PERICENTER = 228.2653
MEAN_ANOMALY   = 154.8220

EPHEMERIS_TYPE = 0
CLASSIFICATION_TYPE = U
NORAD_CAT_ID   = 27432
ELEMENT_SET_NO = 999
REV_AT_EPOCH   = 21898
BSTAR          = .49045E-4
MEAN_MOTION_DOT = .5E-6
MEAN_MOTION_DDOT = 0

CCSDS_OMM_VERS = 2.0
CREATION_DATE  = 
ORIGINATOR     = 

OBJECT_NAME    = MIDORI II (ADEOS-II)
OBJECT_ID      = 2002-056A
CENTER_NAME    = EARTH
REF_FRAME      = TEME
TIME_SYSTEM    = UTC
MEAN_ELEMENT_THEORY = SGP/SGP4

EPOCH          = 2025-12-27T03:17:29.436864
MEAN_MOTION    = 14.29215794
ECCENTRICITY   = .0000909
INCLINATION    = 98.7656
RA_OF_ASC_NODE = 314.1704
ARG_OF_PERICENTER = 145.2788
MEAN_ANOMALY   = 214.8452

EPHEMERIS_TYPE = 0
CLASSIFICATION_TYPE = U
NORAD_CAT_ID   = 27597
ELEMENT_SET_NO = 999
REV_AT_EPOCH   = 19993
BSTAR          = .16885E-3
MEAN_MOTION_DOT = .384E-5
MEAN_MOTION_DDOT = 0

CCSDS_OMM_VERS = 2.0
CREATION_DATE  = 
ORIGINATOR     = 

OBJECT_NAME    = H-2A R/B
OBJECT_ID      = 2002-056E
CENTER_NAME    = EARTH
REF_FRAME      = TEME
TIME_SYSTEM    = UTC
MEAN_ELEMENT_THEORY = SGP/SGP4

EPOCH          = 2025-12-26T22:03:56.176416
MEAN_MOTION    = 14.33688828
ECCENTRICITY   = .0070797
INCLINATION    = 98.3086
RA_OF_ASC_NODE = 319.1130
ARG_OF_PERICENTER = 19.3907
MEAN_ANOMALY   = 49.0746

EPHEMERIS_TYPE = 0
CLASSIFICATION_TYPE = U
NORAD_CAT_ID   = 27601
ELEMENT_SET_NO = 999
REV_AT_EPOCH   = 20368
BSTAR          = .18809E-3
MEAN_MOTION_DOT = .495E-5
MEAN_MOTION_DDOT = 0

CCSDS_OMM_VERS = 2.0
CREATION_DATE  = 
ORIGINATOR     = 

OBJECT_NAME    = CZ-4B R/B
OBJECT_ID      = 2003-049C
CENTER_NAME    = EARTH
REF_FRAME      = TEME
TIME_SYSTEM    = UTC
MEAN_ELEMENT_THEORY = SGP/SGP4

EPOCH          = 2025-12-26T23:15:32.101056
MEAN_MOTION    = 14.54923302
ECCENTRICITY   = .0049387
INCLINATION    = 98.6799
RA_OF_ASC_NODE = 348.0712
ARG_OF_PERICENTER = 93.5315
MEAN_ANOMALY   = 267.1531

EPHEMERIS_TYPE = 0
CLASSIFICATION_TYPE = U
NORAD_CAT_ID   = 28059
ELEMENT_SET_NO = 999
REV_AT_EPOCH   = 17602
BSTAR          = .13324E-3
MEAN_MOTION_DOT = .531E-5
MEAN_MOTION_DDOT = 0

CCSDS_OMM_VERS = 2.0
CREATION_DATE  = 
ORIGINATOR     = 

OBJECT_NAME    = CZ-2C R/B
OBJECT_ID      = 2004-012C
CENTER_NAME    = EARTH
REF_FRAME      = TEME
TIME_SYSTEM    = UTC
MEAN_ELEMENT_THEORY = SGP/SGP4

EPOCH          = 2025-12-27T01:55:20.317728
MEAN_MOTION    = 15.56602786
ECCENTRICITY   = .001667
INCLINATION    = 97.7395
RA_OF_ASC_NODE = 54.8950
ARG_OF_PERICENTER = 214.7570
MEAN_ANOMALY   = 145.2597

EPHEMERIS_TYPE = 0
CLASSIFICATION_TYPE = U
NORAD_CAT_ID   = 28222
ELEMENT_SET_NO = 999
REV_AT_EPOCH   = 19295
BSTAR          = .66836E-3
MEAN_MOTION_DOT = .47921E-3
MEAN_MOTION_DDOT = 0

CCSDS_OMM_VERS = 2.0
CREATION_DATE  = 
ORIGINATOR     = 

OBJECT_NAME    = SL-16 R/B
OBJECT_ID      = 2004-021B
CENTER_NAME    = EARTH
REF_FRAME      = TEME
TIME_SYSTEM    = UTC
MEAN_ELEMENT_THEORY = SGP/SGP4

EPOCH          = 2025-12-27T04:31:26.704128
MEAN_MOTION    = 14.14580852
ECCENTRICITY   = .0004499
INCLINATION    = 71.0004
RA_OF_ASC_NODE = 24.6435
ARG_OF_PERICENTER = 175.6367
MEAN_ANOMALY   = 184.4795

EPHEMERIS_TYPE = 0
CLASSIFICATION_TYPE = U
NORAD_CAT_ID   = 28353
ELEMENT_SET_NO = 999
REV_AT_EPOCH   = 11258
BSTAR          = .15228E-3
MEAN_MOTION_DOT = .245E-5
MEAN_MOTION_DDOT = 0

CCSDS_OMM_VERS = 2.0
CREATION_DATE  = 
ORIGINATOR     = 

OBJECT_NAME    = CZ-4B R/B
OBJECT_ID      = 2004-035C
CENTER_NAME    = EARTH
REF_FRAME      = TEME
TIME_SYSTEM    = UTC
MEAN_ELEMENT_THEORY = SGP/SGP4

EPOCH          = 2025-12-27T02:30:25.705152
MEAN_MOTION    = 15.27607937
ECCENTRICITY   = .0031867
INCLINATION    = 97.3598
RA_OF_ASC_NODE = 31.2575
ARG_OF_PERICENTER = 224.1058
MEAN_ANOMALY   = 135.7640

EPHEMERIS_TYPE = 0
CLASSIFICATION_TYPE = U
NORAD_CAT_ID   = 28415
ELEMENT_SET_NO = 999
REV_AT_EPOCH   = 16882
BSTAR          = .37972E-3
MEAN_MOTION_DOT = .10332E-3
MEAN_MOTION_DDOT = 0

CCSDS_OMM_VERS = 2.0
CREATION_DATE  = 
ORIGINATOR     = 

OBJECT_NAME    = CZ-2C R/B
OBJECT_ID      = 2004-046B
CENTER_NAME    = EARTH
REF_FRAME      = TEME
TIME_SYSTEM    = UTC
MEAN_ELEMENT_THEORY = SGP/SGP4

EPOCH          = 2025-12-27T01:16:12.325152
MEAN_MOTION    = 14.26949649
ECCENTRICITY   = .0139786
INCLINATION    = 98.1997
RA_OF_ASC_NODE = 275.5419
ARG_OF_PERICENTER = 10.1924
MEAN_ANOMALY   = 350.2041

EPHEMERIS_TYPE = 0
CLASSIFICATION_TYPE = U
NORAD_CAT_ID   = 28480
ELEMENT_SET_NO = 999
REV_AT_EPOCH   = 9814
BSTAR          = .14583E-3
MEAN_MOTION_DOT = .352E-5
MEAN_MOTION_DDOT = 0

CCSDS_OMM_VERS = 2.0
CREATION_DATE  = 
ORIGINATOR     = 

OBJECT_NAME    = ARIANE 5 R/B
OBJECT_ID      = 2004-049H
CENTER_NAME    = EARTH
REF_FRAME      = TEME
TIME_SYSTEM    = UTC
MEAN_ELEMENT_THEORY = SGP/SGP4

EPOCH          = 2025-12-27T00:06:25.074432
MEAN_MOTION    = 14.85049960
ECCENTRICITY   = .0083565
INCLINATION    = 98.2530
RA_OF_ASC_NODE = 161.7980
ARG_OF_PERICENTER = 226.1395
MEAN_ANOMALY   = 133.2894

EPHEMERIS_TYPE = 0
CLASSIFICATION_TYPE = U
NORAD_CAT_ID   = 28499
ELEMENT_SET_NO = 999
REV_AT_EPOCH   = 13500
BSTAR          = .17785E-3
MEAN_MOTION_DOT = .1551E-4
MEAN_MOTION_DDOT = 0

CCSDS_OMM_VERS = 2.0
CREATION_DATE  = 
ORIGINATOR     = 

OBJECT_NAME    = CZ-2D R/B
OBJECT_ID      = 2005-024B
CENTER_NAME    = EARTH
REF_FRAME      = TEME
TIME_SYSTEM    = UTC
MEAN_ELEMENT_THEORY = SGP/SGP4

EPOCH          = 2025-12-27T00:29:57.488064
MEAN_MOTION    = 15.54032763
ECCENTRICITY   = .0003317
INCLINATION    = 97.3631
RA_OF_ASC_NODE = 8.8497
ARG_OF_PERICENTER = 303.9804
MEAN_ANOMALY   = 56.1134

EPHEMERIS_TYPE = 0
CLASSIFICATION_TYPE = U
NORAD_CAT_ID   = 28738
ELEMENT_SET_NO = 999
REV_AT_EPOCH   = 12847
BSTAR          = .56968E-3
MEAN_MOTION_DOT = .36893E-3
MEAN_MOTION_DDOT = 0

